OBJECT_NAME,OBJECT_ID,EPOCH,MEAN_MOTION,ECCENTRICITY,INCLINATION,RA_OF_ASC_NODE,ARG_OF_PERICENTER,MEAN_ANOMALY,EPHEMERIS_TYPE,CLASSIFICATION_TYPE,NORAD_CAT_ID,ELEMENT_SET_NO,REV_AT_EPOCH,BSTAR,MEAN_MOTION_DOT,MEAN_MOTION_DDOT
STARLINK-4391,2022-084A,2026-06-15T04:25:51.060000,15.05655052,.00011188,97.3580,226.3565,108.0007,252.1342,0,U,53189,999,21472,-.78713207E-4,-.1193E-4,0
STARLINK-4332,2022-084B,2026-06-15T03:10:06.656736,15.05629190,.00014832,97.3579,226.3423,104.0966,256.0427,0,U,53190,999,21471,.19356611E-3,.2735E-4,0
STARLINK-4369,2022-084C,2026-06-15T08:00:01.999872,15.32257020,.00018875,97.6000,227.5506,82.3686,357.7833,0,U,53191,999,579,-.24599963E-3,-.7725E-4,0
STARLINK-4375,2022-084D,2026-06-15T03:53:58.905312,15.05639608,.00015256,97.3554,226.3702,115.5102,244.6284,0,U,53192,999,21471,.19122103E-3,.2702E-4,0
STARLINK-4351,2022-084E,2026-06-15T03:04:09.365088,15.05656303,.0002159,97.3595,225.2110,115.4477,244.6974,0,U,53193,999,21498,-.57635695E-4,-.889E-5,0
STARLINK-4382,2022-084F,2026-06-15T04:17:52.878336,15.05647166,.0002073,97.3569,226.3565,108.9129,251.2323,0,U,53194,999,21404,.78760213E-4,.1079E-4,0
STARLINK-4403,2022-084J,2026-06-15T02:56:10.618368,15.05660315,.0000619,97.3609,225.1925,62.8426,297.2865,0,U,53197,999,21396,-.60863628E-4,-.936E-5,0
STARLINK-4385,2022-084K,2026-06-15T03:40:03.298080,15.05649805,.00019002,97.3553,225.3129,139.3608,220.7762,0,U,53198,999,21463,.2088031E-4,.244E-5,0
STARLINK-4395,2022-084L,2026-06-15T03:42:00.043488,15.05636858,.00021769,97.3577,226.3646,105.8258,254.3210,0,U,53199,999,21404,.16697654E-3,.2352E-4,0
STARLINK-4417,2022-084M,2026-06-15T04:09:54.834912,15.05648486,.0002167,97.3592,226.3513,86.0316,274.1159,0,U,53200,999,21470,.6521417E-5,.37E-6,0
STARLINK-4405,2022-084N,2026-06-15T08:00:01.999872,15.34300897,.00018918,97.5992,228.6595,81.9544,173.9687,0,U,53201,999,583,-.46148376E-3,-.15359E-3,0
STARLINK-4411,2022-084P,2026-06-15T03:26:03.081408,15.05641944,.0001828,97.3561,226.3783,81.3115,278.8320,0,U,53202,999,21404,.12523698E-3,.175E-4,0
STARLINK-4409,2022-084Q,2026-06-15T03:22:03.653184,15.05662370,.00018409,97.3592,226.3663,96.8773,263.2664,0,U,53203,999,21404,.71642284E-4,.977E-5,0
STARLINK-4410,2022-084R,2026-06-15T08:00:01.999872,15.30124413,.0001486,97.6005,227.3775,68.0027,22.4502,0,U,53204,999,578,-.72448368E-4,-.2187E-4,0
STARLINK-4397,2022-084S,2026-06-15T03:14:04.813152,15.05654077,.00014509,97.3601,226.3682,143.1190,217.0138,0,U,53205,999,21404,.4234456E-5,.4E-7,0
STARLINK-4408,2022-084T,2026-06-15T03:34:01.320960,15.05645990,.00021394,97.3589,226.3590,97.4514,262.6957,0,U,53206,999,21404,.21896786E-4,.259E-5,0
STARLINK-4413,2022-084U,2026-06-15T04:15:55.929024,15.05654868,.00020407,97.3555,225.2285,117.4180,242.7255,0,U,53207,999,21397,.24020178E-4,.289E-5,0
STARLINK-4425,2022-084V,2026-06-15T04:11:57.086592,15.05655515,.00016697,97.3652,225.2596,111.7665,248.3740,0,U,53208,999,21397,-.8609269E-4,-.13E-4,0
STARLINK-4423,2022-084W,2026-06-15T03:00:10.521792,15.05658853,.00019715,97.3584,225.3026,113.1900,246.9536,0,U,53209,999,21397,.1067128E-4,.97E-6,0
STARLINK-4427,2022-084X,2026-06-15T04:07:57.525312,15.05648160,.00019358,97.3588,225.2537,118.4462,241.6961,0,U,53210,999,21451,.37236801E-4,.48E-5,0
STARLINK-4416,2022-084Z,2026-06-15T03:18:04.440096,15.05643287,.00014246,97.3583,226.3534,81.4774,278.6615,0,U,53212,999,21403,.11874127E-3,.1656E-4,0
STARLINK-4414,2022-084AA,2026-06-15T03:32:06.518688,15.05609068,.00017712,97.3562,225.2503,124.3948,235.7447,0,U,53213,999,21449,.6245936E-3,.8956E-4,0
STARLINK-4353,2022-084AB,2026-06-15T03:59:58.970400,15.05647087,.00015827,97.3551,225.2417,111.0065,249.1332,0,U,53214,999,21397,.63929587E-4,.865E-5,0
STARLINK-4335,2022-084AC,2026-06-15T02:54:08.034048,15.05660341,.00019802,97.3627,226.3500,82.5554,277.5898,0,U,53215,999,21456,.4864556E-5,.13E-6,0
STARLINK-4376,2022-084AD,2026-06-15T03:44:01.943520,15.05643812,.00018336,97.3562,225.2483,116.2748,243.8668,0,U,53216,999,21397,.49619985E-4,.659E-5,0
STARLINK-4384,2022-084AF,2026-06-15T03:57:57.268224,15.05652686,.00022829,97.3617,226.4521,102.9019,257.2463,0,U,53218,999,21457,-.19106848E-4,-.333E-5,0
STARLINK-4373,2022-084AG,2026-06-15T03:02:09.519648,15.05619932,.00006903,97.3615,226.3242,136.3543,223.7739,0,U,53219,999,21404,-.34184528E-3,-.4982E-4,0
STARLINK-4363,2022-084AH,2026-06-15T03:48:00.920736,15.05650781,.00017419,97.3553,225.2276,130.2219,229.9162,0,U,53220,999,21449,.4139634E-4,.54E-5,0
STARLINK-4377,2022-084AJ,2026-06-15T02:52:12.233856,15.05641752,.00021214,97.3597,225.2623,101.4568,258.6898,0,U,53221,999,21397,.26961158E-3,.3834E-4,0
STARLINK-4356,2022-084AM,2026-06-15T03:51:59.879808,15.05649689,.00019483,97.3563,225.2158,103.4894,256.6551,0,U,53224,999,21397,-.1374363E-5,-.77E-6,0
