STARLINK-4391           
1 53189U 22084A   26166.18461875 -.00001193  00000+0 -78713-4 0  9998
2 53189  97.3580 226.3565 0001118 108.0007 252.1342 15.05655052214725
STARLINK-4332           
1 53190U 22084B   26166.13202149  .00002735  00000+0  19357-3 0  9991
2 53190  97.3579 226.3423 0001483 104.0966 256.0427 15.05629190214713
STARLINK-4369           
1 53191U 22084C   26166.33335648 -.00007725  00000+0 -24600-3 0  9998
2 53191  97.6000 227.5506 0001887  82.3686 357.7833 15.32257020  5791
STARLINK-4375           
1 53192U 22084D   26166.16248733  .00002702  00000+0  19122-3 0  9999
2 53192  97.3554 226.3702 0001525 115.5102 244.6284 15.05639608214713
STARLINK-4351           
1 53193U 22084E   26166.12788617 -.00000889  00000+0 -57636-4 0  9995
2 53193  97.3595 225.2110 0002159 115.4477 244.6974 15.05656303214984
STARLINK-4382           
1 53194U 22084F   26166.17908424  .00001079  00000+0  78760-4 0  9992
2 53194  97.3569 226.3565 0002073 108.9129 251.2323 15.05647166214044
STARLINK-4403           
1 53197U 22084J   26166.12234512 -.00000936  00000+0 -60864-4 0  9999
2 53197  97.3609 225.1925 0000619  62.8426 297.2865 15.05660315213963
STARLINK-4385           
1 53198U 22084K   26166.15281595  .00000244  00000+0  20880-4 0  9990
2 53198  97.3553 225.3129 0001900 139.3608 220.7762 15.05649805214639
STARLINK-4395           
1 53199U 22084L   26166.15416717  .00002352  00000+0  16698-3 0  9990
2 53199  97.3577 226.3646 0002176 105.8258 254.3210 15.05636858214046
STARLINK-4417           
1 53200U 22084M   26166.17355133  .00000037  00000+0  65214-5 0  9997
2 53200  97.3592 226.3513 0002167  86.0316 274.1159 15.05648486214709
STARLINK-4405           
1 53201U 22084N   26166.33335648 -.00015359  00000+0 -46148-3 0  9993
2 53201  97.5992 228.6595 0001891  81.9544 173.9687 15.34300897  5838
STARLINK-4411           
1 53202U 22084P   26166.14309122  .00001750  00000+0  12524-3 0  9990
2 53202  97.3561 226.3783 0001828  81.3115 278.8320 15.05641944214044
STARLINK-4409           
1 53203U 22084Q   26166.14032006  .00000977  00000+0  71642-4 0  9992
2 53203  97.3592 226.3663 0001840  96.8773 263.2664 15.05662370214046
STARLINK-4410           
1 53204U 22084R   26166.33335648 -.00002187  00000+0 -72448-4 0  9994
2 53204  97.6005 227.3775 0001486  68.0027  22.4502 15.30124413  5787
STARLINK-4397           
1 53205U 22084S   26166.13477793  .00000004  00000+0  42345-5 0  9999
2 53205  97.3601 226.3682 0001450 143.1190 217.0138 15.05654077214044
STARLINK-4408           
1 53206U 22084T   26166.14862640  .00000259  00000+0  21897-4 0  9990
2 53206  97.3589 226.3590 0002139  97.4514 262.6957 15.05645990214043
STARLINK-4413           
1 53207U 22084U   26166.17773066  .00000289  00000+0  24020-4 0  9991
2 53207  97.3555 225.2285 0002040 117.4180 242.7255 15.05654868213974
STARLINK-4425           
1 53208U 22084V   26166.17496628 -.00001300  00000+0 -86093-4 0  9993
2 53208  97.3652 225.2596 0001669 111.7665 248.3740 15.05655515213970
STARLINK-4423           
1 53209U 22084W   26166.12512178  .00000097  00000+0  10671-4 0  9997
2 53209  97.3584 225.3026 0001971 113.1900 246.9536 15.05658853213973
STARLINK-4427           
1 53210U 22084X   26166.17219358  .00000480  00000+0  37237-4 0  9991
2 53210  97.3588 225.2537 0001935 118.4462 241.6961 15.05648160214511
STARLINK-4416           
1 53212U 22084Z   26166.13755139  .00001656  00000+0  11874-3 0  9995
2 53212  97.3583 226.3534 0001424  81.4774 278.6615 15.05643287214033
STARLINK-4414           
1 53213U 22084AA  26166.14729767  .00008956  00000+0  62459-3 0  9990
2 53213  97.3562 225.2503 0001771 124.3948 235.7447 15.05609068214496
STARLINK-4353           
1 53214U 22084AB  26166.16665475  .00000865  00000+0  63930-4 0  9995
2 53214  97.3551 225.2417 0001582 111.0065 249.1332 15.05647087213979
STARLINK-4335           
1 53215U 22084AC  26166.12092632  .00000013  00000+0  48646-5 0  9994
2 53215  97.3627 226.3500 0001980  82.5554 277.5898 15.05660341214562
STARLINK-4376           
1 53216U 22084AD  26166.15557805  .00000659  00000+0  49620-4 0  9994
2 53216  97.3562 225.2483 0001833 116.2748 243.8668 15.05643812213975
STARLINK-4384           
1 53218U 22084AF  26166.16524616 -.00000333  00000+0 -19107-4 0  9999
2 53218  97.3617 226.4521 0002282 102.9019 257.2463 15.05652686214574
STARLINK-4373           
1 53219U 22084AG  26166.12649907 -.00004982  00000+0 -34185-3 0  9993
2 53219  97.3615 226.3242 0000690 136.3543 223.7739 15.05619932214049
STARLINK-4363           
1 53220U 22084AH  26166.15834399  .00000540  00000+0  41396-4 0  9996
2 53220  97.3553 225.2276 0001741 130.2219 229.9162 15.05650781214492
STARLINK-4377           
1 53221U 22084AJ  26166.11958604  .00003834  00000+0  26961-3 0  9998
2 53221  97.3597 225.2623 0002121 101.4568 258.6898 15.05641752213972
STARLINK-4356           
1 53224U 22084AM  26166.16110972 -.00000077  00000+0 -13744-5 0  9999
2 53224  97.3563 225.2158 0001948 103.4894 256.6551 15.05649689213972
